ORBCOMM FM24 [-]        
1 25478U 98053D   23315.22481859  .00001535  00000+0  58462-3 0  9995
2 25478  45.0068 150.3552 0001226 163.1087 196.9801 14.34880573313485
ORBCOMM FM25 [-]        
1 25479U 98053E   23315.81563954  .00001636  00000+0  62007-3 0  9990
2 25479  45.0057 145.8029 0003650 198.7876 161.2837 14.34867051313867
ORBCOMM FM26 [-]        
1 25480U 98053F   23315.82915543  .00001583  00000+0  60663-3 0  9995
2 25480  45.0048 139.1769 0005556 224.9603 135.0794 14.34421484313916
ORBCOMM FM27 [+]        
1 25481U 98053G   23315.59200686  .00001618  00000+0  61400-3 0  9994
2 25481  45.0041 147.1150 0000545  57.3254 302.7645 14.34839275313768
ORBCOMM FM28 [-]        
1 25482U 98053H   23315.49783004  .00001911  00000+0  70928-3 0  9995
2 25482  45.0045  86.6660 0004577 240.9460 119.0929 14.35329872314419
ORBCOMM FM30 [-]        
1 25980U 99065A   23315.39057228  .00001577  00000+0  60303-3 0  9997
2 25980  45.0327 326.5974 0007522 314.5639  45.4594 14.34553096250547
ORBCOMM FM31 [-]        
1 25981U 99065B   23315.70588388  .00001472  00000+0  56613-3 0  9992
2 25981  45.0237 318.9489 0004273 325.0631  34.9935 14.34578672251116
ORBCOMM FM32 [+]        
1 25982U 99065C   23315.41716143  .00001379  00000+0  54453-3 0  9999
2 25982  45.0169 332.7850 0006165 333.1009  26.9518 14.33521444250759
